{
  "norad_id": 65660,
  "name": "STARLINK-35246",
  "history": [
    {
      "epoch": "2026-03-28T20:13:47.029152Z",
      "apogee_km": 550.6246730063303,
      "perigee_km": 548.438854957918,
      "latitude_deg": 3.247078070912378e-05,
      "longitude_deg": 3.2389994828913156,
      "height_km": 552.8466327520285,
      "semi_major_axis_km": 6927.668763982124,
      "eccentricity": 0.00015776,
      "inclination_deg": 97.6026,
      "raan_deg": 132.9425,
      "arg_perigee_deg": 103.3366,
      "mean_anomaly_deg": 256.8037,
      "mean_motion_rev_day": 15.05643281
    },
    {
      "epoch": "2026-03-29T02:36:35.050464Z",
      "apogee_km": 550.6083688785629,
      "perigee_km": 548.4164606037384,
      "latitude_deg": -3.5915333017182174e-07,
      "longitude_deg": -92.46110249786314,
      "height_km": 552.8322085101601,
      "semi_major_axis_km": 6927.64941474115,
      "eccentricity": 0.0001582,
      "inclination_deg": 97.6025,
      "raan_deg": 133.2045,
      "arg_perigee_deg": 103.5629,
      "mean_anomaly_deg": 256.5774,
      "mean_motion_rev_day": 15.05649589
    },
    {
      "epoch": "2026-03-30T02:32:04.792128Z",
      "apogee_km": 550.5214128964308,
      "perigee_km": 548.4303822194306,
      "latitude_deg": 5.817981101603304e-05,
      "longitude_deg": -91.33509518211102,
      "height_km": 552.839804324594,
      "semi_major_axis_km": 6927.61289755793,
      "eccentricity": 0.00015092,
      "inclination_deg": 97.6021,
      "raan_deg": 134.187,
      "arg_perigee_deg": 106.7288,
      "mean_anomaly_deg": 253.4105,
      "mean_motion_rev_day": 15.05661494
    },
    {
      "epoch": "2026-03-30T13:41:58.492896Z",
      "apogee_km": 550.4533305566092,
      "perigee_km": 548.4836737602363,
      "latitude_deg": -4.6579742494550045e-05,
      "longitude_deg": 101.19103921748473,
      "height_km": 552.8753997367893,
      "semi_major_axis_km": 6927.6055021584225,
      "eccentricity": 0.00014216,
      "inclination_deg": 97.602,
      "raan_deg": 134.6454,
      "arg_perigee_deg": 110.4267,
      "mean_anomaly_deg": 249.7112,
      "mean_motion_rev_day": 15.05663905
    },
    {
      "epoch": "2026-03-30T20:04:46.255008Z",
      "apogee_km": 550.4433826834884,
      "perigee_km": 548.4791314736767,
      "latitude_deg": 9.005100921270888e-05,
      "longitude_deg": 5.4919980136249125,
      "height_km": 552.8664233644528,
      "semi_major_axis_km": 6927.598257078583,
      "eccentricity": 0.00014177,
      "inclination_deg": 97.6019,
      "raan_deg": 134.9074,
      "arg_perigee_deg": 110.3782,
      "mean_anomaly_deg": 249.7598,
      "mean_motion_rev_day": 15.05666267
    },
    {
      "epoch": "2026-03-31T15:13:09.722784Z",
      "apogee_km": 550.3092514850587,
      "perigee_km": 548.6396971197528,
      "latitude_deg": 2.7925839449157123e-05,
      "longitude_deg": 78.39467914169357,
      "height_km": 552.8523380479022,
      "semi_major_axis_km": 6927.611474302405,
      "eccentricity": 0.0001205,
      "inclination_deg": 97.6012,
      "raan_deg": 135.6939,
      "arg_perigee_deg": 112.119,
      "mean_anomaly_deg": 248.0165,
      "mean_motion_rev_day": 15.05661958
    },
    {
      "epoch": "2026-04-01T19:55:45.172416Z",
      "apogee_km": 550.2671632222491,
      "perigee_km": 548.6779695877158,
      "latitude_deg": -7.603892226575084e-05,
      "longitude_deg": 7.746316152553183,
      "height_km": 552.8470477421414,
      "semi_major_axis_km": 6927.609566404983,
      "eccentricity": 0.0001147,
      "inclination_deg": 97.6012,
      "raan_deg": 136.8723,
      "arg_perigee_deg": 113.0274,
      "mean_anomaly_deg": 247.1073,
      "mean_motion_rev_day": 15.0566258
    },
    {
      "epoch": "2026-04-02T08:41:21.075072Z",
      "apogee_km": 550.247459315322,
      "perigee_km": 548.7053725689339,
      "latitude_deg": 6.604037395824952e-05,
      "longitude_deg": 176.3464698891108,
      "height_km": 552.8793891834472,
      "semi_major_axis_km": 6927.613415942128,
      "eccentricity": 0.0001113,
      "inclination_deg": 97.6012,
      "raan_deg": 137.3961,
      "arg_perigee_deg": 116.1023,
      "mean_anomaly_deg": 244.0319,
      "mean_motion_rev_day": 15.05661325
    },
    {
      "epoch": "2026-04-03T16:35:21.133248Z",
      "apogee_km": 550.2596955429044,
      "perigee_km": 548.7702503687196,
      "latitude_deg": -5.855319735361874e-06,
      "longitude_deg": 57.846350312821535,
      "height_km": 552.8851832211766,
      "semi_major_axis_km": 6927.651972955812,
      "eccentricity": 0.0001075,
      "inclination_deg": 97.6019,
      "raan_deg": 138.7063,
      "arg_perigee_deg": 114.3013,
      "mean_anomaly_deg": 245.8326,
      "mean_motion_rev_day": 15.05648755
    },
    {
      "epoch": "2026-04-04T16:30:51.514272Z",
      "apogee_km": 550.3342553104876,
      "perigee_km": 548.707641224235,
      "latitude_deg": 7.255525719324432e-05,
      "longitude_deg": 58.96978244503812,
      "height_km": 552.9340481875822,
      "semi_major_axis_km": 6927.6579482673615,
      "eccentricity": 0.0001174,
      "inclination_deg": 97.6021,
      "raan_deg": 139.6889,
      "arg_perigee_deg": 115.451,
      "mean_anomaly_deg": 244.6839,
      "mean_motion_rev_day": 15.05646807
    },
    {
      "epoch": "2026-04-05T13:14:57.306624Z",
      "apogee_km": 549.8374331979903,
      "perigee_km": 549.1571395110695,
      "latitude_deg": 5.88027527897187e-05,
      "longitude_deg": 107.94709436354708,
      "height_km": 552.6419700412303,
      "semi_major_axis_km": 6927.63428635453,
      "eccentricity": 4.91e-05,
      "inclination_deg": 97.6014,
      "raan_deg": 140.5419,
      "arg_perigee_deg": 103.6364,
      "mean_anomaly_deg": 256.4918,
      "mean_motion_rev_day": 15.05654521
    },
    {
      "epoch": "2026-04-05T16:26:21.306048Z",
      "apogee_km": 550.0507220290747,
      "perigee_km": 548.945071499551,
      "latitude_deg": 7.329581899239876e-05,
      "longitude_deg": 60.09678596316902,
      "height_km": 552.9217801109713,
      "semi_major_axis_km": 6927.6348967643125,
      "eccentricity": 7.98e-05,
      "inclination_deg": 97.6018,
      "raan_deg": 140.6726,
      "arg_perigee_deg": 130.5703,
      "mean_anomaly_deg": 229.5594,
      "mean_motion_rev_day": 15.05654322
    },
    {
      "epoch": "2026-04-06T02:00:33.341472Z",
      "apogee_km": 550.1250516498567,
      "perigee_km": 548.8653310121845,
      "latitude_deg": -3.306614295643198e-05,
      "longitude_deg": -83.4535746295083,
      "height_km": 552.9008618973897,
      "semi_major_axis_km": 6927.63219133102,
      "eccentricity": 9.092e-05,
      "inclination_deg": 97.6026,
      "raan_deg": 141.0654,
      "arg_perigee_deg": 122.8426,
      "mean_anomaly_deg": 237.2888,
      "mean_motion_rev_day": 15.05655204
    }
  ]
}